INMARSAT 4-F2 (SOUTHPA*)
1 28899U 05044A   26126.69141737 -.00000252  00000+0  00000+0 0  9992
2 28899   5.0419  43.7467 0003005   6.8084 206.3960  1.00273197 75101
GSAT-8 (GAGAN/PRN 127)  
1 37605U 11022A   26126.84353184  .00000092  00000+0  00000+0 0  9999
2 37605   2.0243  82.3026 0003973 230.1864 270.9645  1.00274044 52801
LUCH 5A (SDCM/PRN 140)  
1 37951U 11074B   26126.65181898 -.00000040  00000+0  00000+0 0  9994
2 37951   8.6495  74.4065 0002709 321.5189 230.2371  1.00274960 52635
SES-5 (EGNOS/PRN 136)   
1 38652U 12036A   26126.54838248  .00000042  00000+0  00000+0 0  9999
2 38652   0.0563 302.2943 0002142 105.5541  18.9684  1.00272511 44039
GSAT-10 (GAGAN/PRN 128) 
1 38779U 12051B   26126.85833352 -.00000156  00000+0  00000+0 0  9998
2 38779   0.0166 272.6569 0007660 172.1599 171.8290  1.00270652 49687
LUCH 5B (SDCM/PRN 125)  
1 38977U 12061A   26125.61728095 -.00000130  00000+0  00000+0 0  9991
2 38977  10.3941  50.2982 0000903 195.9153 183.2286  1.00272084 49181
ASTRA 5B (EGNOS/PRN 123)
1 39617U 14011B   26126.83729183  .00000145  00000+0  00000+0 0  9999
2 39617   0.0519 325.1825 0002587  70.8498 153.6044  1.00274910 44259
LUCH 5V (SDCM/PRN 141)  
1 39727U 14023A   26126.86232896 -.00000259  00000+0  00000+0 0  9994
2 39727   5.0327  70.1516 0002897 355.6675 204.0653  1.00269229 43941
GSAT-15 (GAGAN/PRN 139) 
1 41028U 15065A   26126.76166097 -.00000250  00000+0  00000+0 0  9997
2 41028   0.0451 254.4077 0003886 159.4771 178.4298  1.00272032 38383
EUTELSAT 117 WEST B (W*)
1 41589U 16038B   26126.52437571 -.00000004  00000+0  00000+0 0  9999
2 41589   0.0092 127.6077 0000313 163.8316   4.7164  1.00270943 36248
SES-15 (WAAS/PRN 133)   
1 42709U 17026A   26126.80924935  .00000067  00000+0  00000+0 0  9996
2 42709   0.0214 324.5773 0000724  84.0584 338.2143  1.00270521  7014
QZS-2 (QZSS/PRN 194)    
1 42738U 17028A   26125.63528612 -.00000201  00000+0  00000+0 0  9993
2 42738  39.4938 243.7793 0763138 268.8214  78.8072  1.00295347  7196
QZS-3 (QZSS/PRN 199)    
1 42917U 17048A   26126.87150500 -.00000340  00000+0  00000+0 0  9992
2 42917   0.0597 148.6200 0002236 259.0076 257.8154  1.00277224 31842
QZS-4 (QZSS/PRN 195)    
1 42965U 17062A   26125.93492591 -.00000319  00000+0  00000+0 0  9992
2 42965  40.1331 344.0222 0745653 271.0371  85.0238  1.00264121 31386
BEIDOU-3 G1 (PRN 130)   
1 43683U 18085A   26126.79300499 -.00000100  00000+0  00000+0 0  9994
2 43683   2.9699  98.4675 0007594 336.8813 234.7400  1.00273465 27644
EUTELSAT 5 WEST B (EGN*)
1 44624U 19067A   26126.61780278 -.00000034  00000+0  00000+0 0  9995
2 44624   0.0681 338.1662 0003256  71.4897  32.2531  1.00275304 24024
BEIDOU-3 G2 (PRN 144)   
1 45344U 20017A   26126.84847188 -.00000132  00000+0  00000+0 0  9990
2 45344   2.7818  46.6913 0002970   4.1020 199.3998  1.00271461 22848
BEIDOU-3 G3 (PRN 143)   
1 45807U 20040A   26126.91025964 -.00000345  00000+0  00000+0 0  9994
2 45807   2.3465  67.3313 0004162 340.5100 255.0390  1.00266005 21653
GALAXY 30 (WAAS/PRN 135)
1 46114U 20056C   26126.66533905  .00000044  00000+0  00000+0 0  9999
2 46114   0.0064 311.7201 0002661 107.6205 279.7147  1.00271819 20872
QZS-1R (QZSS/PRN 196)   
1 49336U 21096A   26126.75161600 -.00000224  00000+0  00000+0 0  9993
2 49336  37.3786  80.1943 0752168 271.0101 279.6114  1.00270288 16596
QZS-6 (QZSS/PRN 200)    
1 62876U 25023A   26126.79287986 -.00000226  00000+0  00000+0 0  9993
2 62876   0.0557  78.9319 0002828 336.3883 185.2887  1.00271708  4547
